OBJECT_NAME,OBJECT_ID,EPOCH,MEAN_MOTION,ECCENTRICITY,INCLINATION,RA_OF_ASC_NODE,ARG_OF_PERICENTER,MEAN_ANOMALY,EPHEMERIS_TYPE,CLASSIFICATION_TYPE,NORAD_CAT_ID,ELEMENT_SET_NO,REV_AT_EPOCH,BSTAR,MEAN_MOTION_DOT,MEAN_MOTION_DDOT
STARLINK-4071,2022-053R,2026-06-10T02:44:54.527136,15.08844552,.00010529,53.1645,99.1569,78.1482,281.9628,0,U,52671,999,22499,-.11682578E-3,-.2147E-4,0
STARLINK-4073,2022-053S,2026-06-10T03:00:49.206528,15.08825244,.00012443,53.1618,99.1079,86.3267,273.7867,0,U,52672,999,22499,.72392344E-4,.864E-5,0
STARLINK-3976,2022-053T,2026-06-10T02:34:19.113888,15.08832954,.00013647,53.1654,99.1897,92.5058,267.6090,0,U,52673,999,22499,.17222131E-4,-.14E-6,0
STARLINK-3936,2022-053U,2026-06-10T06:00:02.999808,15.47094030,.00014122,53.2171,89.1674,71.1667,78.8948,0,U,52674,999,585,.42780595E-2,.226306E-2,0
STARLINK-3934,2022-053V,2026-06-10T02:30:21.634848,15.08828092,.00013082,53.1642,89.2040,82.6224,277.4916,0,U,52675,999,22512,-.71600646E-4,-.1427E-4,0
STARLINK-4006,2022-053W,2026-06-10T02:39:37.005408,15.08826092,.00017225,53.1646,99.1740,83.8765,276.2423,0,U,52676,999,22499,.88619168E-4,.1122E-4,0
STARLINK-4074,2022-053Y,2026-06-10T02:46:15.461472,15.08836483,.0001404,53.1624,89.2587,88.7694,271.3458,0,U,52678,999,22512,.10628003E-3,.1404E-4,0
STARLINK-4031,2022-053Z,2026-06-10T02:03:50.824224,15.08833367,.00013311,53.1643,89.2859,87.7594,272.3549,0,U,52679,999,22508,-.502974E-6,-.296E-5,0
STARLINK-3774,2022-053AA,2026-06-10T01:53:12.528672,15.08840903,.00015597,53.1646,89.0833,78.5541,281.5626,0,U,52680,999,22510,-.85239056E-4,-.1645E-4,0
STARLINK-4068,2022-053AB,2026-06-10T00:23:09.586752,15.08834316,.00012053,53.1618,89.6022,78.6126,281.5000,0,U,52681,999,22507,.60103297E-4,.669E-5,0
STARLINK-4017,2022-053AC,2026-06-10T02:14:28.298112,15.08820396,.00014313,53.1647,89.2526,87.3977,272.7178,0,U,52682,999,22510,-.71193958E-4,-.142E-4,0
STARLINK-4014,2022-053AE,2026-06-10T02:09:08.819424,15.08831833,.00012755,53.1636,89.2696,83.2312,276.8825,0,U,52684,999,22508,.8418701E-5,-.154E-5,0
STARLINK-4029,2022-053AF,2026-06-10T01:37:21.093600,15.08835394,.00016223,53.1641,89.3680,89.8214,270.2963,0,U,52685,999,22506,.31169296E-4,.208E-5,0
STARLINK-4005,2022-053AG,2026-06-10T02:31:46.343136,15.08834505,.00013573,53.1624,89.4776,89.6850,270.4297,0,U,52686,999,22507,.33150475E-4,.24E-5,0
STARLINK-3981,2022-053AH,2026-06-10T01:32:03.078528,15.08836609,.00014315,53.1640,89.3846,89.1543,270.9613,0,U,52687,999,22506,.29055791E-4,.174E-5,0
STARLINK-4032,2022-053AJ,2026-06-09T12:43:40.214784,15.08831936,.00014396,53.1656,91.6664,93.3016,266.8140,0,U,52688,999,22498,.38593554E-4,.326E-5,0
STARLINK-4078,2022-053AK,2026-06-10T05:53:47.389632,15.71372357,.00014889,53.2073,353.3485,198.9598,161.1366,0,U,52689,999,22647,.10448526E-2,.137338E-2,0
STARLINK-4035,2022-053AL,2026-06-10T01:42:38.785536,15.08838123,.00014605,53.1644,89.3499,89.7319,270.3840,0,U,52690,999,22506,.43177517E-4,.399E-5,0
STARLINK-3993,2022-053AN,2026-06-10T02:25:00.022944,15.08836453,.00013267,53.1632,88.9511,73.9647,286.1491,0,U,52692,999,22510,-.35621019E-4,-.855E-5,0
STARLINK-3946,2022-053AP,2026-06-10T02:35:38.612256,15.08836395,.00013786,53.1622,89.1856,93.5626,266.5524,0,U,52693,999,22510,-.17933124E-4,-.573E-5,0
STARLINK-4072,2022-053AQ,2026-06-10T02:56:50.451360,15.08824360,.00012557,53.1635,89.1200,95.1887,264.9248,0,U,52694,999,22510,.18985071E-3,.2734E-4,0
STARLINK-4041,2022-053AR,2026-06-10T02:16:23.662848,15.08836550,.00010734,53.1617,94.0434,83.0520,277.0593,0,U,52695,999,22504,.17141311E-4,-.15E-6,0
STARLINK-4018,2022-053AT,2026-06-10T02:54:54.602784,15.08811135,.00013598,53.1629,94.1259,96.1823,263.9324,0,U,52697,999,22504,.35216165E-3,.5317E-4,0
STARLINK-4030,2022-053AU,2026-06-10T03:09:26.165376,15.08805985,.00017052,53.1618,94.0688,92.6645,267.4542,0,U,52698,999,22503,.63055934E-3,.9753E-4,0
STARLINK-3987,2022-053AV,2026-06-10T02:38:57.417792,15.08838401,.00011238,53.1636,84.2055,89.5653,270.5467,0,U,52699,999,22519,.2950629E-4,.182E-5,0
STARLINK-4034,2022-053AW,2026-06-10T02:11:04.010496,15.08841511,.00015567,53.1647,93.9034,87.0796,273.0374,0,U,52700,999,22504,-.62095964E-4,-.1276E-4,0
STARLINK-4033,2022-053AY,2026-06-10T02:53:32.116704,15.08833559,.00012813,53.1622,94.1619,106.4212,253.6920,0,U,52702,999,22504,.50295519E-4,.512E-5,0
STARLINK-4020,2022-053AZ,2026-06-10T01:54:34.769376,15.08834593,.00013954,53.1643,79.3292,93.1257,266.9894,0,U,52703,999,22398,.64188354E-4,.734E-5,0
STARLINK-3999,2022-053BA,2026-06-10T02:15:46.067616,15.08835302,.00013663,53.1614,79.2484,109.5802,250.5337,0,U,52704,999,22526,.12670881E-3,.1729E-4,0
STARLINK-3844,2022-053BB,2026-06-10T01:59:52.923552,15.08833316,.00013071,53.1635,79.2967,87.5720,272.5422,0,U,52705,999,22526,-.7703534E-5,-.411E-5,0
