STARLINK-4071           
1 52671U 22053R   26161.11451999 -.00002147  00000+0 -11683-3 0  9995
2 52671  53.1645  99.1569 0001052  78.1482 281.9628 15.08844552224998
STARLINK-4073           
1 52672U 22053S   26161.12556952  .00000864  00000+0  72392-4 0  9999
2 52672  53.1618  99.1079 0001244  86.3267 273.7867 15.08825244224991
STARLINK-3976           
1 52673U 22053T   26161.10716567 -.00000014  00000+0  17222-4 0  9997
2 52673  53.1654  99.1897 0001364  92.5058 267.6090 15.08832954224996
STARLINK-3936           
1 52674U 22053U   26161.25003472  .00226306  00000+0  42781-2 0  9997
2 52674  53.2171  89.1674 0001412  71.1667  78.8948 15.47094030  5851
STARLINK-3934           
1 52675U 22053V   26161.10441707 -.00001427  00000+0 -71601-4 0  9991
2 52675  53.1642  89.2040 0001308  82.6224 277.4916 15.08828092225128
STARLINK-4006           
1 52676U 22053W   26161.11084497  .00001122  00000+0  88619-4 0  9999
2 52676  53.1646  99.1740 0001722  83.8765 276.2423 15.08826092224995
STARLINK-4074           
1 52678U 22053Y   26161.11545673  .00001404  00000+0  10628-3 0  9996
2 52678  53.1624  89.2587 0001404  88.7694 271.3458 15.08836483225129
STARLINK-4031           
1 52679U 22053Z   26161.08600491 -.00000296  00000+0 -50297-6 0  9992
2 52679  53.1643  89.2859 0001331  87.7594 272.3549 15.08833367225085
STARLINK-3774           
1 52680U 22053AA  26161.07861723 -.00001645  00000+0 -85239-4 0  9991
2 52680  53.1646  89.0833 0001559  78.5541 281.5626 15.08840903225107
STARLINK-4068           
1 52681U 22053AB  26161.01608318  .00000669  00000+0  60103-4 0  9991
2 52681  53.1618  89.6022 0001205  78.6126 281.5000 15.08834316225074
STARLINK-4017           
1 52682U 22053AC  26161.09338308 -.00001420  00000+0 -71194-4 0  9999
2 52682  53.1647  89.2526 0001431  87.3977 272.7178 15.08820396225109
STARLINK-4014           
1 52684U 22053AE  26161.08968541 -.00000154  00000+0  84187-5 0  9997
2 52684  53.1636  89.2696 0001275  83.2312 276.8825 15.08831833225080
STARLINK-4029           
1 52685U 22053AF  26161.06760525  .00000208  00000+0  31169-4 0  9998
2 52685  53.1641  89.3680 0001622  89.8214 270.2963 15.08835394225065
STARLINK-4005           
1 52686U 22053AG  26161.10539749  .00000240  00000+0  33150-4 0  9994
2 52686  53.1624  89.4776 0001357  89.6850 270.4297 15.08834505225079
STARLINK-3981           
1 52687U 22053AH  26161.06392452  .00000174  00000+0  29056-4 0  9994
2 52687  53.1640  89.3846 0001431  89.1543 270.9613 15.08836609225065
STARLINK-4032           
1 52688U 22053AJ  26160.53032656  .00000326  00000+0  38594-4 0  9999
2 52688  53.1656  91.6664 0001439  93.3016 266.8140 15.08831936224984
STARLINK-4078           
1 52689U 22053AK  26161.24568738  .00137338  00000+0  10449-2 0  9995
2 52689  53.2073 353.3485 0001488 198.9598 161.1366 15.71372357226479
STARLINK-4035           
1 52690U 22053AL  26161.07128224  .00000399  00000+0  43178-4 0  9993
2 52690  53.1644  89.3499 0001460  89.7319 270.3840 15.08838123225065
STARLINK-3993           
1 52692U 22053AN  26161.10069471 -.00000855  00000+0 -35621-4 0  9990
2 52692  53.1632  88.9511 0001326  73.9647 286.1491 15.08836453225100
STARLINK-3946           
1 52693U 22053AP  26161.10808579 -.00000573  00000+0 -17933-4 0  9994
2 52693  53.1622  89.1856 0001378  93.5626 266.5524 15.08836395225101
STARLINK-4072           
1 52694U 22053AQ  26161.12280615  .00002734  00000+0  18985-3 0  9998
2 52694  53.1635  89.1200 0001255  95.1887 264.9248 15.08824360225104
STARLINK-4041           
1 52695U 22053AR  26161.09471832 -.00000015  00000+0  17141-4 0  9993
2 52695  53.1617  94.0434 0001073  83.0520 277.0593 15.08836550225042
STARLINK-4018           
1 52697U 22053AT  26161.12146531  .00005317  00000+0  35216-3 0  9995
2 52697  53.1629  94.1259 0001359  96.1823 263.9324 15.08811135225049
STARLINK-4030           
1 52698U 22053AU  26161.13155284  .00009753  00000+0  63056-3 0  9993
2 52698  53.1618  94.0688 0001705  92.6645 267.4542 15.08805985225037
STARLINK-3987           
1 52699U 22053AV  26161.11038678  .00000182  00000+0  29506-4 0  9999
2 52699  53.1636  84.2055 0001123  89.5653 270.5467 15.08838401225192
STARLINK-4034           
1 52700U 22053AW  26161.09101864 -.00001276  00000+0 -62096-4 0  9995
2 52700  53.1647  93.9034 0001556  87.0796 273.0374 15.08841511225047
STARLINK-4033           
1 52702U 22053AY  26161.12051061  .00000512  00000+0  50296-4 0  9993
2 52702  53.1622  94.1619 0001281 106.4212 253.6920 15.08833559225042
STARLINK-4020           
1 52703U 22053AZ  26161.07956909  .00000734  00000+0  64188-4 0  9994
2 52703  53.1643  79.3292 0001395  93.1257 266.9894 15.08834593223982
STARLINK-3999           
1 52704U 22053BA  26161.09428319  .00001729  00000+0  12671-3 0  9990
2 52704  53.1614  79.2484 0001366 109.5802 250.5337 15.08835302225262
STARLINK-3844           
1 52705U 22053BB  26161.08325143 -.00000411  00000+0 -77035-5 0  9997
2 52705  53.1635  79.2967 0001307  87.5720 272.5422 15.08833316225263
